TWILIGHT AN             
1 67399U 26004AN  26040.22345001  .00011283  00000+0  55487-3 0  9991
2 67399  97.4562  41.1671 0009465  76.5824 283.6465 15.18146760  4349
CONNECTA IOT-13         
1 67400U 26004AP  26040.21848532  .00006437  00000+0  31859-3 0  9992
2 67400  97.4561  41.1703 0010961  74.6502 285.5943 15.18087307  4345
CONNECTA IOT-14         
1 67401U 26004AQ  26039.95220836  .00006482  00000+0  31675-3 0  9999
2 67401  97.4503  40.8943 0011560  70.8308 289.4177 15.18522884  4304
CONNECTA IOT-15         
1 67402U 26004AR  26040.24631468  .00012104  00000+0  62097-3 0  9991
2 67402  97.4566  41.1368 0004463  62.7854 297.3834 15.16674609  4331
SHIJIAN-29B (SJ-29B)    
1 67403U 25315C   26040.06515822 -.00000061  00000+0  00000+0 0  9993
2 67403   3.0729  98.4614 0002592 313.9681 183.2880  1.00272450   409
STARLINK-36484          
1 67404U 26005A   26040.02852714  .00041327  00000+0  98991-3 0  9990
2 67404  43.0014  42.4070 0001618 251.8254 108.2427 15.40739898  4287
STARLINK-36452          
1 67405U 26005B   26040.25002315 -.02052657  00000+0 -52318-1 0  9993
2 67405  43.0006  40.6828 0001112 266.7709  68.7859 15.42377693  5563
STARLINK-36409          
1 67406U 26005C   26040.25002315  .00032864  00000+0  79154-3 0  9997
2 67406  43.0005  40.9204 0001139 266.4086 330.7332 15.40664044  5619
STARLINK-36510          
1 67407U 26005D   26040.05563421  .00031418  00000+0  53874-3 0  9991
2 67407  43.0003  41.7387 0001072 264.3746  95.6992 15.50603621  4292
STARLINK-36509          
1 67408U 26005E   26040.25002315  .00034601  00000+0  83273-3 0  9997
2 67408  43.0006  40.7994 0000891 254.4792  32.4118 15.40666879  5617
STARLINK-36507          
1 67409U 26005F   26040.25002315 -.02079404  00000+0 -44192-1 0  9997
2 67409  43.0004  40.6047 0001335 275.2998  91.6371 15.47684060  5614
STARLINK-36508          
1 67410U 26005G   26040.02180850  .00028725  00000+0  69189-3 0  9996
2 67410  43.0017  42.3520 0001755 241.6424 118.4256 15.40718064  4289
