CCSDS_OMM_VERS = 2.0
CREATION_DATE  = 
ORIGINATOR     = 

OBJECT_NAME    = TWILIGHT AN
OBJECT_ID      = 2026-004AN
CENTER_NAME    = EARTH
REF_FRAME      = TEME
TIME_SYSTEM    = UTC
MEAN_ELEMENT_THEORY = SGP/SGP4

EPOCH          = 2026-02-09T05:21:46.080864
MEAN_MOTION    = 15.18146760
ECCENTRICITY   = .00094658
INCLINATION    = 97.4562
RA_OF_ASC_NODE = 41.1671
ARG_OF_PERICENTER = 76.5824
MEAN_ANOMALY   = 283.6465

EPHEMERIS_TYPE = 0
CLASSIFICATION_TYPE = U
NORAD_CAT_ID   = 67399
ELEMENT_SET_NO = 999
REV_AT_EPOCH   = 434
BSTAR          = .55486862E-3
MEAN_MOTION_DOT = .11283E-3
MEAN_MOTION_DDOT = 0

CCSDS_OMM_VERS = 2.0
CREATION_DATE  = 
ORIGINATOR     = 

OBJECT_NAME    = CONNECTA IOT-13
OBJECT_ID      = 2026-004AP
CENTER_NAME    = EARTH
REF_FRAME      = TEME
TIME_SYSTEM    = UTC
MEAN_ELEMENT_THEORY = SGP/SGP4

EPOCH          = 2026-02-09T05:14:37.131648
MEAN_MOTION    = 15.18087307
ECCENTRICITY   = .00109611
INCLINATION    = 97.4561
RA_OF_ASC_NODE = 41.1703
ARG_OF_PERICENTER = 74.6502
MEAN_ANOMALY   = 285.5943

EPHEMERIS_TYPE = 0
CLASSIFICATION_TYPE = U
NORAD_CAT_ID   = 67400
ELEMENT_SET_NO = 999
REV_AT_EPOCH   = 434
BSTAR          = .31859199E-3
MEAN_MOTION_DOT = .6437E-4
MEAN_MOTION_DDOT = 0

CCSDS_OMM_VERS = 2.0
CREATION_DATE  = 
ORIGINATOR     = 

OBJECT_NAME    = CONNECTA IOT-14
OBJECT_ID      = 2026-004AQ
CENTER_NAME    = EARTH
REF_FRAME      = TEME
TIME_SYSTEM    = UTC
MEAN_ELEMENT_THEORY = SGP/SGP4

EPOCH          = 2026-02-08T22:51:10.802304
MEAN_MOTION    = 15.18522884
ECCENTRICITY   = .00115604
INCLINATION    = 97.4503
RA_OF_ASC_NODE = 40.8943
ARG_OF_PERICENTER = 70.8308
MEAN_ANOMALY   = 289.4177

EPHEMERIS_TYPE = 0
CLASSIFICATION_TYPE = U
NORAD_CAT_ID   = 67401
ELEMENT_SET_NO = 999
REV_AT_EPOCH   = 430
BSTAR          = .31674618E-3
MEAN_MOTION_DOT = .6482E-4
MEAN_MOTION_DDOT = 0

CCSDS_OMM_VERS = 2.0
CREATION_DATE  = 
ORIGINATOR     = 

OBJECT_NAME    = CONNECTA IOT-15
OBJECT_ID      = 2026-004AR
CENTER_NAME    = EARTH
REF_FRAME      = TEME
TIME_SYSTEM    = UTC
MEAN_ELEMENT_THEORY = SGP/SGP4

EPOCH          = 2026-02-09T05:54:41.588352
MEAN_MOTION    = 15.16674609
ECCENTRICITY   = .00044631
INCLINATION    = 97.4566
RA_OF_ASC_NODE = 41.1368
ARG_OF_PERICENTER = 62.7854
MEAN_ANOMALY   = 297.3834

EPHEMERIS_TYPE = 0
CLASSIFICATION_TYPE = U
NORAD_CAT_ID   = 67402
ELEMENT_SET_NO = 999
REV_AT_EPOCH   = 433
BSTAR          = .62097359E-3
MEAN_MOTION_DOT = .12104E-3
MEAN_MOTION_DDOT = 0

CCSDS_OMM_VERS = 2.0
CREATION_DATE  = 
ORIGINATOR     = 

OBJECT_NAME    = SHIJIAN-29B (SJ-29B)
OBJECT_ID      = 2025-315C
CENTER_NAME    = EARTH
REF_FRAME      = TEME
TIME_SYSTEM    = UTC
MEAN_ELEMENT_THEORY = SGP/SGP4

EPOCH          = 2026-02-09T01:33:49.670208
MEAN_MOTION    = 1.00272450
ECCENTRICITY   = .00025927
INCLINATION    = 3.0729
RA_OF_ASC_NODE = 98.4614
ARG_OF_PERICENTER = 313.9681
MEAN_ANOMALY   = 183.2880

EPHEMERIS_TYPE = 0
CLASSIFICATION_TYPE = U
NORAD_CAT_ID   = 67403
ELEMENT_SET_NO = 999
REV_AT_EPOCH   = 40
BSTAR          = 0
MEAN_MOTION_DOT = -.61E-6
MEAN_MOTION_DDOT = 0

CCSDS_OMM_VERS = 2.0
CREATION_DATE  = 
ORIGINATOR     = 

OBJECT_NAME    = STARLINK-36484
OBJECT_ID      = 2026-005A
CENTER_NAME    = EARTH
REF_FRAME      = TEME
TIME_SYSTEM    = UTC
MEAN_ELEMENT_THEORY = SGP/SGP4

EPOCH          = 2026-02-09T00:41:04.744896
MEAN_MOTION    = 15.40739898
ECCENTRICITY   = .00016183
INCLINATION    = 43.0014
RA_OF_ASC_NODE = 42.4070
ARG_OF_PERICENTER = 251.8254
MEAN_ANOMALY   = 108.2427

EPHEMERIS_TYPE = 0
CLASSIFICATION_TYPE = U
NORAD_CAT_ID   = 67404
ELEMENT_SET_NO = 999
REV_AT_EPOCH   = 428
BSTAR          = .98991447E-3
MEAN_MOTION_DOT = .41327E-3
MEAN_MOTION_DDOT = 0

CCSDS_OMM_VERS = 2.0
CREATION_DATE  = 
ORIGINATOR     = 

OBJECT_NAME    = STARLINK-36452
OBJECT_ID      = 2026-005B
CENTER_NAME    = EARTH
REF_FRAME      = TEME
TIME_SYSTEM    = UTC
MEAN_ELEMENT_THEORY = SGP/SGP4

EPOCH          = 2026-02-09T06:00:02.000160
MEAN_MOTION    = 15.42377693
ECCENTRICITY   = .00011125
INCLINATION    = 43.0006
RA_OF_ASC_NODE = 40.6828
ARG_OF_PERICENTER = 266.7709
MEAN_ANOMALY   = 68.7859

EPHEMERIS_TYPE = 0
CLASSIFICATION_TYPE = U
NORAD_CAT_ID   = 67405
ELEMENT_SET_NO = 999
REV_AT_EPOCH   = 556
BSTAR          = -.52318298E-1
MEAN_MOTION_DOT = -.2052657E-1
MEAN_MOTION_DDOT = 0

CCSDS_OMM_VERS = 2.0
CREATION_DATE  = 
ORIGINATOR     = 

OBJECT_NAME    = STARLINK-36409
OBJECT_ID      = 2026-005C
CENTER_NAME    = EARTH
REF_FRAME      = TEME
TIME_SYSTEM    = UTC
MEAN_ELEMENT_THEORY = SGP/SGP4

EPOCH          = 2026-02-09T06:00:02.000160
MEAN_MOTION    = 15.40664044
ECCENTRICITY   = .00011398
INCLINATION    = 43.0005
RA_OF_ASC_NODE = 40.9204
ARG_OF_PERICENTER = 266.4086
MEAN_ANOMALY   = 330.7332

EPHEMERIS_TYPE = 0
CLASSIFICATION_TYPE = U
NORAD_CAT_ID   = 67406
ELEMENT_SET_NO = 999
REV_AT_EPOCH   = 561
BSTAR          = .79153707E-3
MEAN_MOTION_DOT = .32864E-3
MEAN_MOTION_DDOT = 0

CCSDS_OMM_VERS = 2.0
CREATION_DATE  = 
ORIGINATOR     = 

OBJECT_NAME    = STARLINK-36510
OBJECT_ID      = 2026-005D
CENTER_NAME    = EARTH
REF_FRAME      = TEME
TIME_SYSTEM    = UTC
MEAN_ELEMENT_THEORY = SGP/SGP4

EPOCH          = 2026-02-09T01:20:06.795744
MEAN_MOTION    = 15.50603621
ECCENTRICITY   = .00010723
INCLINATION    = 43.0003
RA_OF_ASC_NODE = 41.7387
ARG_OF_PERICENTER = 264.3746
MEAN_ANOMALY   = 95.6992

EPHEMERIS_TYPE = 0
CLASSIFICATION_TYPE = U
NORAD_CAT_ID   = 67407
ELEMENT_SET_NO = 999
REV_AT_EPOCH   = 429
BSTAR          = .53874035E-3
MEAN_MOTION_DOT = .31418E-3
MEAN_MOTION_DDOT = 0

CCSDS_OMM_VERS = 2.0
CREATION_DATE  = 
ORIGINATOR     = 

OBJECT_NAME    = STARLINK-36509
OBJECT_ID      = 2026-005E
CENTER_NAME    = EARTH
REF_FRAME      = TEME
TIME_SYSTEM    = UTC
MEAN_ELEMENT_THEORY = SGP/SGP4

EPOCH          = 2026-02-09T06:00:02.000160
MEAN_MOTION    = 15.40666879
ECCENTRICITY   = .00008919
INCLINATION    = 43.0006
RA_OF_ASC_NODE = 40.7994
ARG_OF_PERICENTER = 254.4792
MEAN_ANOMALY   = 32.4118

EPHEMERIS_TYPE = 0
CLASSIFICATION_TYPE = U
NORAD_CAT_ID   = 67408
ELEMENT_SET_NO = 999
REV_AT_EPOCH   = 561
BSTAR          = .83272722E-3
MEAN_MOTION_DOT = .34601E-3
MEAN_MOTION_DDOT = 0

CCSDS_OMM_VERS = 2.0
CREATION_DATE  = 
ORIGINATOR     = 

OBJECT_NAME    = STARLINK-36507
OBJECT_ID      = 2026-005F
CENTER_NAME    = EARTH
REF_FRAME      = TEME
TIME_SYSTEM    = UTC
MEAN_ELEMENT_THEORY = SGP/SGP4

EPOCH          = 2026-02-09T06:00:02.000160
MEAN_MOTION    = 15.47684060
ECCENTRICITY   = .00013356
INCLINATION    = 43.0004
RA_OF_ASC_NODE = 40.6047
ARG_OF_PERICENTER = 275.2998
MEAN_ANOMALY   = 91.6371

EPHEMERIS_TYPE = 0
CLASSIFICATION_TYPE = U
NORAD_CAT_ID   = 67409
ELEMENT_SET_NO = 999
REV_AT_EPOCH   = 561
BSTAR          = -.44191946E-1
MEAN_MOTION_DOT = -.2079404E-1
MEAN_MOTION_DDOT = 0

CCSDS_OMM_VERS = 2.0
CREATION_DATE  = 
ORIGINATOR     = 

OBJECT_NAME    = STARLINK-36508
OBJECT_ID      = 2026-005G
CENTER_NAME    = EARTH
REF_FRAME      = TEME
TIME_SYSTEM    = UTC
MEAN_ELEMENT_THEORY = SGP/SGP4

EPOCH          = 2026-02-09T00:31:24.254400
MEAN_MOTION    = 15.40718064
ECCENTRICITY   = .00017552
INCLINATION    = 43.0017
RA_OF_ASC_NODE = 42.3520
ARG_OF_PERICENTER = 241.6424
MEAN_ANOMALY   = 118.4256

EPHEMERIS_TYPE = 0
CLASSIFICATION_TYPE = U
NORAD_CAT_ID   = 67410
ELEMENT_SET_NO = 999
REV_AT_EPOCH   = 428
BSTAR          = .69188769E-3
MEAN_MOTION_DOT = .28725E-3
MEAN_MOTION_DDOT = 0

